0 SL-6 R/B(2)
1 09980U 77032D   13279.16386476  .00000038  00000-0  00000+0 0  6827
2 09980 063.2807 287.2589 6966203 244.8423 030.4900 02.30360519139619
0 SL-6 R/B(2)
1 09980U 77032D   13280.03207222  .00000039  00000-0  00000+0 0  6838
2 09980 063.2746 287.0829 6966097 244.8637 030.4869 02.30360678139636
0 SL-6 R/B(2)
1 09980U 77032D   13282.63667607  .00000022  00000-0  00000+0 0  6846
2 09980 063.2691 286.6556 6966186 244.8655 030.4965 02.30360828139696
0 SL-6 R/B(2)
1 09980U 77032D   13285.67535073 -.00000006  00000-0  00000+0 0  6858
2 09980 063.2628 286.1575 6966385 244.8676 030.4873 02.30360874139763
0 SL-6 R/B(2)
1 09980U 77032D   13290.01629720  .00000002  00000-0  00000+0 0  6861
2 09980 063.2540 285.4457 6966663 244.8723 030.4645 02.30360787139860
0 SL-6 R/B(2)
1 09980U 77032D   13293.05498972  .00000008  00000-0  00000+0 0  6878
2 09980 063.2481 284.9478 6966788 244.8759 030.4752 02.30360645139938
